STARLINK-1615
1 16166C 20057BB  21326.14723319  .00002788  00000-0  18684-3 0  3260
2 16166  53.0517 158.0754 0002156  80.0430 311.1702 15.06387481    14
